0 THOR ABLESTAR DEB
1 00660U 61015HM  13281.40745542  .00001475  00000-0  38220-3 0  8007
2 00660 066.5285 147.6177 0054561 301.9188 115.4691 14.51892750706653
0 THOR ABLESTAR DEB
1 00660U 61015HM  13283.47612567  .00001722  00000-0  44203-3 0  8010
2 00660 066.5282 141.9725 0054594 300.6396 127.8583 14.51907414706953
0 THOR ABLESTAR DEB
1 00660U 61015HM  13285.75992470  .00002011  00000-0  51223-3 0  8020
2 00660 066.5292 135.7427 0054581 299.0336 184.9591 14.51912179707289
0 THOR ABLESTAR DEB
1 00660U 61015HM  13288.43614705  .00003407  00000-0  85036-3 0  8030
2 00660 066.5284 128.4391 0054689 297.3748 133.0656 14.51926021707677
0 THOR ABLESTAR DEB
1 00660U 61015HM  13290.71142895  .00002985  00000-0  74774-3 0  8048
2 00660 066.5282 122.2290 0054752 295.9408 145.6715 14.51939221708002
0 THOR ABLESTAR DEB
1 00660U 61015HM  13292.92229656  .00003354  00000-0  83705-3 0  8050
2 00660 066.5287 116.1949 0054844 294.5783 181.6655 14.51947741708327
0 THOR ABLESTAR DEB
1 00660U 61015HM  13294.92657646  .00004067  00000-0  10095-2 0  8060
2 00660 066.5293 110.7247 0054925 293.3769 217.8887 14.51958643708610
